{
  "type": "FeatureCollection",
  "features": [
    {
      "type": "Feature",
      "properties": {
        "norad_id": 33765,
        "name": "COSMOS 2251 DEB",
        "group": "cosmos-2251-debris",
        "lat": -9.6719593695336,
        "lon": -171.96275089559157,
        "alt_km": 523.1726696297874,
        "timestamp": "2025-12-04T03:47:54.934520+00:00",
        "meta_object_name": "COSMOS 2251 DEB",
        "meta_object_id": "1993-036N",
        "meta_epoch": "2025-12-03T01:28:12.736992",
        "meta_mean_motion": 15.0901824,
        "meta_eccentricity": 0.00679045,
        "meta_inclination": 74.0113,
        "meta_ra_of_asc_node": 193.1019,
        "meta_arg_of_pericenter": 286.9236,
        "meta_mean_anomaly": 225.2775,
        "meta_ephemeris_type": 0,
        "meta_classification_type": "U",
        "meta_norad_cat_id": 33765,
        "meta_element_set_no": 999,
        "meta_rev_at_epoch": 89472,
        "meta_bstar": 0.0027523493,
        "meta_mean_motion_dot": 0.00046205,
        "meta_mean_motion_ddot": 0,
        "tle_line1": "1 33765U 93036N   25337.06125853  .00046205  00000+0  27523-2 0  9992",
        "tle_line2": "2 33765  74.0113 193.1019 0067904 286.9236 225.2775 15.09018240894728"
      },
      "geometry": {
        "type": "Point",
        "coordinates": [
          -171.96275089559157,
          -9.6719593695336
        ]
      }
    },
    {
      "type": "Feature",
      "properties": {
        "norad_id": 33766,
        "name": "COSMOS 2251 DEB",
        "group": "cosmos-2251-debris",
        "lat": -12.722860830916524,
        "lon": 146.8927662640078,
        "alt_km": 734.6095052232577,
        "timestamp": "2025-12-04T03:47:54.934530+00:00",
        "meta_object_name": "COSMOS 2251 DEB",
        "meta_object_id": "1993-036P",
        "meta_epoch": "2025-12-03T11:07:35.839200",
        "meta_mean_motion": 14.34891033,
        "meta_eccentricity": 0.0063658,
        "meta_inclination": 74.1845,
        "meta_ra_of_asc_node": 151.823,
        "meta_arg_of_pericenter": 357.8454,
        "meta_mean_anomaly": 2.2415,
        "meta_ephemeris_type": 0,
        "meta_classification_type": "U",
        "meta_norad_cat_id": 33766,
        "meta_element_set_no": 999,
        "meta_rev_at_epoch": 87612,
        "meta_bstar": 0.00065823,
        "meta_mean_motion_dot": 1.889e-05,
        "meta_mean_motion_ddot": 0,
        "tle_line1": "1 33766U 93036P   25337.46360925  .00001889  00000+0  65823-3 0  9993",
        "tle_line2": "2 33766  74.1845 151.8230 0063658 357.8454   2.2415 14.34891033876124"
      },
      "geometry": {
        "type": "Point",
        "coordinates": [
          146.8927662640078,
          -12.722860830916524
        ]
      }
    },
    {
      "type": "Feature",
      "properties": {
        "norad_id": 33768,
        "name": "COSMOS 2251 DEB",
        "group": "cosmos-2251-debris",
        "lat": 57.33589723794297,
        "lon": 27.259930253496712,
        "alt_km": 1004.310340940383,
        "timestamp": "2025-12-04T03:47:54.934541+00:00",
        "meta_object_name": "COSMOS 2251 DEB",
        "meta_object_id": "1993-036R",
        "meta_epoch": "2025-12-03T12:10:03.514368",
        "meta_mean_motion": 13.58442485,
        "meta_eccentricity": 0.0365846,
        "meta_inclination": 74.0687,
        "meta_ra_of_asc_node": 234.7668,
        "meta_arg_of_pericenter": 34.5446,
        "meta_mean_anomaly": 136.2629,
        "meta_ephemeris_type": 0,
        "meta_classification_type": "U",
        "meta_norad_cat_id": 33768,
        "meta_element_set_no": 999,
        "meta_rev_at_epoch": 83170,
        "meta_bstar": 0.00052418,
        "meta_mean_motion_dot": 5.71e-06,
        "meta_mean_motion_ddot": 0,
        "tle_line1": "1 33768U 93036R   25337.50698512  .00000571  00000+0  52418-3 0  9999",
        "tle_line2": "2 33768  74.0687 234.7668 0365846  34.5446 136.2629 13.58442485831707"
      },
      "geometry": {
        "type": "Point",
        "coordinates": [
          27.259930253496712,
          57.33589723794297
        ]
      }
    },
    {
      "type": "Feature",
      "properties": {
        "norad_id": 33779,
        "name": "COSMOS 2251 DEB",
        "group": "cosmos-2251-debris",
        "lat": -41.63317515027854,
        "lon": 172.6264809215755,
        "alt_km": 667.6168926128521,
        "timestamp": "2025-12-04T03:47:54.934551+00:00",
        "meta_object_name": "COSMOS 2251 DEB",
        "meta_object_id": "1993-036U",
        "meta_epoch": "2025-12-03T00:55:01.811424",
        "meta_mean_motion": 14.70149836,
        "meta_eccentricity": 0.00177845,
        "meta_inclination": 74.0444,
        "meta_ra_of_asc_node": 189.529,
        "meta_arg_of_pericenter": 224.8407,
        "meta_mean_anomaly": 285.7962,
        "meta_ephemeris_type": 0,
        "meta_classification_type": "U",
        "meta_norad_cat_id": 33779,
        "meta_element_set_no": 999,
        "meta_rev_at_epoch": 88385,
        "meta_bstar": 0.0015950222,
        "meta_mean_motion_dot": 9.604e-05,
        "meta_mean_motion_ddot": 0,
        "tle_line1": "1 33779U 93036U   25337.03821541  .00009604  00000+0  15950-2 0  9994",
        "tle_line2": "2 33779  74.0444 189.5290 0017784 224.8407 285.7962 14.70149836883856"
      },
      "geometry": {
        "type": "Point",
        "coordinates": [
          172.6264809215755,
          -41.63317515027854
        ]
      }
    },
    {
      "type": "Feature",
      "properties": {
        "norad_id": 33782,
        "name": "COSMOS 2251 DEB",
        "group": "cosmos-2251-debris",
        "lat": -71.72519123586436,
        "lon": -126.6958807387257,
        "alt_km": 761.719856181714,
        "timestamp": "2025-12-04T03:47:54.934577+00:00",
        "meta_object_name": "COSMOS 2251 DEB",
        "meta_object_id": "1993-036X",
        "meta_epoch": "2025-12-02T22:25:33.716928",
        "meta_mean_motion": 14.40400246,
        "meta_eccentricity": 0.00203224,
        "meta_inclination": 74.0326,
        "meta_ra_of_asc_node": 295.6803,
        "meta_arg_of_pericenter": 2.2173,
        "meta_mean_anomaly": 53.3366,
        "meta_ephemeris_type": 0,
        "meta_classification_type": "U",
        "meta_norad_cat_id": 33782,
        "meta_element_set_no": 999,
        "meta_rev_at_epoch": 87985,
        "meta_bstar": 0.00059932666,
        "meta_mean_motion_dot": 1.882e-05,
        "meta_mean_motion_ddot": 0,
        "tle_line1": "1 33782U 93036X   25336.93441802  .00001882  00000+0  59933-3 0  9994",
        "tle_line2": "2 33782  74.0326 295.6803 0020322   2.2173  53.3366 14.40400246879852"
      },
      "geometry": {
        "type": "Point",
        "coordinates": [
          -126.6958807387257,
          -71.72519123586436
        ]
      }
    },
    {
      "type": "Feature",
      "properties": {
        "norad_id": 33785,
        "name": "COSMOS 2251 DEB",
        "group": "cosmos-2251-debris",
        "lat": -65.87648896845653,
        "lon": 36.4805725896215,
        "alt_km": 667.5343046180797,
        "timestamp": "2025-12-04T03:47:54.934589+00:00",
        "meta_object_name": "COSMOS 2251 DEB",
        "meta_object_id": "1993-036AA",
        "meta_epoch": "2025-12-03T08:48:22.547232",
        "meta_mean_motion": 14.70113761,
        "meta_eccentricity": 0.0021341,
        "meta_inclination": 73.8675,
        "meta_ra_of_asc_node": 78.2969,
        "meta_arg_of_pericenter": 20.2137,
        "meta_mean_anomaly": 41.7886,
        "meta_ephemeris_type": 0,
        "meta_classification_type": "U",
        "meta_norad_cat_id": 33785,
        "meta_element_set_no": 999,
        "meta_rev_at_epoch": 88369,
        "meta_bstar": 0.0027112,
        "meta_mean_motion_dot": 0.00016367,
        "meta_mean_motion_ddot": 0,
        "tle_line1": "1 33785U 93036AA  25337.36692763  .00016367  00000+0  27112-2 0  9996",
        "tle_line2": "2 33785  73.8675  78.2969 0021341  20.2137  41.7886 14.70113761883690"
      },
      "geometry": {
        "type": "Point",
        "coordinates": [
          36.4805725896215,
          -65.87648896845653
        ]
      }
    },
    {
      "type": "Feature",
      "properties": {
        "norad_id": 33789,
        "name": "COSMOS 2251 DEB",
        "group": "cosmos-2251-debris",
        "lat": 70.53105426929358,
        "lon": -131.9552165211371,
        "alt_km": 1005.502013222992,
        "timestamp": "2025-12-04T03:47:54.934600+00:00",
        "meta_object_name": "COSMOS 2251 DEB",
        "meta_object_id": "1993-036AE",
        "meta_epoch": "2025-12-03T08:25:27.280416",
        "meta_mean_motion": 13.88759571,
        "meta_eccentricity": 0.0240495,
        "meta_inclination": 74.0635,
        "meta_ra_of_asc_node": 103.3395,
        "meta_arg_of_pericenter": 221.0277,
        "meta_mean_anomaly": 168.3273,
        "meta_ephemeris_type": 0,
        "meta_classification_type": "U",
        "meta_norad_cat_id": 33789,
        "meta_element_set_no": 999,
        "meta_rev_at_epoch": 84965,
        "meta_bstar": 0.0010943,
        "meta_mean_motion_dot": 1.639e-05,
        "meta_mean_motion_ddot": 0,
        "tle_line1": "1 33789U 93036AE  25337.35101019  .00001639  00000+0  10943-2 0  9998",
        "tle_line2": "2 33789  74.0635 103.3395 0240495 221.0277 168.3273 13.88759571849652"
      },
      "geometry": {
        "type": "Point",
        "coordinates": [
          -131.9552165211371,
          70.53105426929358
        ]
      }
    }
  ]
}